{"crs":{"properties":{"name":"EPSG:4326"},"type":"name"},"features":[{"geometry":{"coordinates":[[[-2.2394,53.5401],[-2.2384,53.5388],[-2.2341,53.5392],[-2.2187,53.5439],[-2.2071,53.5382],[-2.2056,53.5369],[-2.2068,53.5342],[-2.2045,53.5325],[-2.1702,53.5277],[-2.1705,53.524],[-2.1648,53.5202],[-2.1592,53.5221],[-2.1548,53.518],[-2.1562,53.5158],[-2.1612,53.5129],[-2.1686,53.5136],[-2.1735,53.5123],[-2.1736,53.5098],[-2.1787,53.5058],[-2.1768,53.5055],[-2.1777,53.505],[-2.1755,53.5027],[-2.1709,53.5031],[-2.1726,53.5024],[-2.1619,53.4983],[-2.1634,53.4968],[-2.164,53.4914],[-2.166,53.4916],[-2.1662,53.4889],[-2.169,53.4885],[-2.1697,53.4868],[-2.1681,53.4801],[-2.1616,53.4749],[-2.1559,53.4753],[-2.1501,53.4723],[-2.1469,53.4675],[-2.15,53.4637],[-2.1528,53.4632],[-2.1492,53.4594],[-2.1604,53.4543],[-2.1613,53.4518],[-2.166,53.4536],[-2.1674,53.4494],[-2.1729,53.448],[-2.172,53.4473],[-2.1739,53.4439],[-2.1753,53.4344],[-2.1768,53.433],[-2.1885,53.4367],[-2.1871,53.4352],[-2.1914,53.4351],[-2.1931,53.4277],[-2.1991,53.427],[-2.2077,53.4201],[-2.2062,53.4201],[-2.2065,53.419],[-2.2097,53.4179],[-2.2134,53.4189],[-2.2155,53.4109],[-2.2126,53.407],[-2.2195,53.4051],[-2.2201,53.4024],[-2.2227,53.4012],[-2.2381,53.4008],[-2.2468,53.3961],[-2.2444,53.3941],[-2.246,53.3938],[-2.246,53.3914],[-2.2439,53.3904],[-2.2457,53.3902],[-2.2462,53.3878],[-2.2426,53.3877],[-2.2431,53.383],[-2.2409,53.3806],[-2.2415,53.3749],[-2.2369,53.3702],[-2.2408,53.3596],[-2.2452,53.3611],[-2.2564,53.3607],[-2.2589,53.3595],[-2.258,53.357],[-2.2646,53.354],[-2.2671,53.3506],[-2.2733,53.3504],[-2.2784,53.3486],[-2.2806,53.346],[-2.2867,53.3455],[-2.2901,53.3423],[-2.2958,53.343],[-2.3017,53.3402],[-2.3028,53.341],[-2.2964,53.3449],[-2.2983,53.3467],[-2.297,53.3486],[-2.299,53.35],[-2.3015,53.349],[-2.3056,53.3531],[-2.3122,53.3548],[-2.3143,53.3568],[-2.2986,53.3608],[-2.2927,53.3703],[-2.2857,53.3762],[-2.2999,53.3843],[-2.3002,53.3922],[-2.305,53.3971],[-2.3073,53.3974],[-2.3199,53.4116],[-2.2977,53.4084],[-2.2973,53.411],[-2.2939,53.4136],[-2.2845,53.4161],[-2.2778,53.4155],[-2.2782,53.4183],[-2.2754,53.4194],[-2.2736,53.4225],[-2.2837,53.425],[-2.2891,53.432],[-2.2999,53.4334],[-2.3002,53.4363],[-2.2997,53.4373],[-2.2943,53.4361],[-2.2954,53.4388],[-2.2915,53.4392],[-2.2899,53.4413],[-2.2931,53.4444],[-2.2896,53.4451],[-2.2862,53.4491],[-2.2715,53.4507],[-2.2582,53.4588],[-2.2537,53.4599],[-2.2537,53.4627],[-2.2579,53.4624],[-2.2657,53.4697],[-2.2682,53.4697],[-2.2627,53.4767],[-2.2456,53.4851],[-2.2453,53.4867],[-2.2535,53.4935],[-2.2525,53.4953],[-2.2554,53.4991],[-2.2515,53.5039],[-2.2471,53.5024],[-2.2458,53.5065],[-2.2503,53.508],[-2.2452,53.5122],[-2.2502,53.5163],[-2.257,53.5179],[-2.2565,53.5203],[-2.2529,53.5225],[-2.2535,53.5243],[-2.2515,53.524],[-2.2518,53.5258],[-2.2488,53.5248],[-2.2466,53.5292],[-2.2641,53.5247],[-2.2685,53.5371],[-2.2588,53.5432],[-2.2517,53.5446],[-2.2394,53.5401]]],"type":"Polygon"},"properties":{"LAD25CD":"E08000003","LAD25NM":"Manchester"},"type":"Feature"}],"type":"FeatureCollection"}
